STARLINK-37526          
1 69463U 26127W   26185.69972028  .00343968  00000+0  21453-2 0  9990
2 69463  53.1569 174.7425 0003963  81.7121 278.4349 15.75371785  4178
STARLINK-37574          
1 69464U 26127X   26185.38701802  .00295006  00000+0  18568-2 0  9999
2 69464  53.1580 176.3496 0001068  41.0536 319.0564 15.75305945  4122
STARLINK-37535          
1 69465U 26127Y   26185.38216007  .00263831  00000+0  16665-2 0  9995
2 69465  53.1569 176.3162 0001371  62.0980 298.0179 15.75315609  4129
STARLINK-37583          
1 69466U 26127Z   26185.67248520  .00496851  00000+0  30347-2 0  9996
2 69466  53.1589 174.5600 0003187  79.3813 280.7566 15.75422094  4172
STARLINK-37546          
1 69467U 26127AA  26185.37796492  .00185798  00000+0  11902-2 0  9991
2 69467  53.1570 176.2857 0001668 100.5354 259.5855 15.75230466  4125
STARLINK-37532          
1 69468U 26127AB  26185.91670139  .00141224  00000+0  91516-3 0  9997
2 69468  53.1598 173.1856 0001367  90.7072 292.5100 15.75112414  5509
STARLINK-37708          
1 69469U 26127AC  26185.37759841  .00352425  00000+0  21861-2 0  9998
2 69469  53.1569 176.2820 0001009  24.3906 335.7162 15.75475417  4125
STARLINK-37686          
1 69470U 26127AD  26185.69063983  .00431621  00000+0  26597-2 0  9997
2 69470  53.1583 174.6785 0003528  76.6972 283.4442 15.75401400  4172
STARLINK-37451          
1 69471U 26127AE  26185.38872884  .00307348  00000+0  14957-2 0  9997
2 69471  53.1574 175.6198 0000356  45.6474 314.4578 15.81020231  4138
DTC TEST OBJECT A       
1 69472U 26128A   26185.83631211  .00024386  00000+0  38485-3 0  9997
2 69472  55.0002 223.5281 0010405 343.7915  16.2785 15.53390042  3977
DTC TEST OBJECT B       
1 69473U 26128B   26178.37654890  .00024134  00000+0  33565-3 0  9992
2 69473  55.0021 257.9040 0009934 325.3113  34.7274 15.56860342  2801
TJS-25                  
1 69474U 26129A   26185.88761023 -.00000357  00000+0  00000+0 0  9991
2 69474   5.9654 330.2871 0002676 284.8705 107.5125  1.00269076   248
STARLINK-37816          
1 69478U 26131A   26185.78628793  .00459995  00000+0  22763-2 0  9991
2 69478  97.2849 207.0845 0000491 116.5014 243.6305 15.80828397  4944
STARLINK-37878          
1 69479U 26131B   26185.79189708  .00505157  00000+0  24472-2 0  9992
2 69479  97.2844 207.0776 0002511 328.3726  31.7391 15.81182435  4949
STARLINK-37817          
1 69480U 26131C   26183.66668981  .00040756  00000+0  21289-3 0  9996
2 69480  97.2834 204.8472 0001807 101.2192  93.1313 15.80776829  4491
STARLINK-37727          
1 69481U 26131D   26185.78403087  .00492588  00000+0  24312-2 0  9999
2 69481  97.2842 207.0877 0001105  33.3493 326.7844 15.80803532  4941
STARLINK-37814          
1 69482U 26131E   26185.91670139  .00108042  00000+0  55898-3 0  9992
2 69482  97.2839 207.2317 0001493  55.1188 343.7807 15.80770767  4853
STARLINK-37869          
1 69483U 26131F   26185.00003472  .00061384  00000+0  31925-3 0  9995
2 69483  97.2832 206.2639 0001177  84.5685 145.4314 15.80795949  4714
STARLINK-37873          
1 69484U 26131G   26185.78178834  .01777167  00000+0  82056-2 0  9990
2 69484  97.2839 207.0922 0001801 254.7087 105.3982 15.80727904  4944
STARLINK-37892          
1 69485U 26131H   26185.91670139  .00043817  00000+0  22861-3 0  9997
2 69485  97.2837 207.2363 0001260  63.5745 348.1420 15.80790813  4853
STARLINK-37893          
1 69486U 26131J   26185.52707131  .00849359  00000+0  39181-2 0  9995
2 69486  97.2837 206.8252 0002248  12.9030 347.2296 15.81373881  4908
STARLINK-37842          
1 69487U 26131K   26185.77953632  .00370859  00000+0  18508-2 0  9996
2 69487  97.2843 207.0951 0003924  83.1547 277.0167 15.80871055  4946
STARLINK-37449          
1 69488U 26131L   26184.70263874  .00333366  00000+0  16560-2 0  9999
2 69488  97.2838 205.9575 0001406  75.3533 284.7891 15.81072024  4771
STARLINK-37831          
1 69489U 26131M   26185.52481383  .00571370  00000+0  27575-2 0  9995
2 69489  97.2833 206.8291 0001390  50.2531 309.8859 15.81093753  4904
STARLINK-37879          
1 69490U 26131N   26185.52406269  .00639805  00000+0  30840-2 0  9994
2 69490  97.2819 206.8298 0001016  88.8468 271.2917 15.80943257  4907
STARLINK-37856          
1 69491U 26131P   26184.70880395  .00305296  00000+0  15355-2 0  9998
2 69491  97.2827 205.9484 0001471 122.7377 237.4033 15.80872985  4773
STARLINK-37568          
1 69492U 26131Q   26185.33265833  .00393616  00000+0  19524-2 0  9998
2 69492  97.2843 206.6306 0001317  96.2066 263.9352 15.80950415  4876
STARLINK-37855          
1 69493U 26131R   26185.78193210  .00673738  00000+0  32442-2 0  9997
2 69493  97.2835 207.0918 0003108  68.4597 291.7002 15.80883619  4942
STARLINK-37854          
1 69494U 26131S   26185.00003472 -.00049536  00000+0 -25957-3 0  9992
2 69494  97.2833 206.2630 0001438  78.3313 148.5760 15.80795534  4772
STARLINK-37789          
1 69495U 26131T   26185.01389931  .00491078  00000+0  23998-2 0  9993
2 69495  97.2832 206.2987 0001508 133.7379 226.4014 15.81026756  3561
