OBJECT_NAME,OBJECT_ID,EPOCH,MEAN_MOTION,ECCENTRICITY,INCLINATION,RA_OF_ASC_NODE,ARG_OF_PERICENTER,MEAN_ANOMALY,EPHEMERIS_TYPE,CLASSIFICATION_TYPE,NORAD_CAT_ID,ELEMENT_SET_NO,REV_AT_EPOCH,BSTAR,MEAN_MOTION_DOT,MEAN_MOTION_DDOT
STARLINK-37526,2026-127W,2026-07-04T16:47:35.832192,15.75371785,.00039636,53.1569,174.7425,81.7121,278.4349,0,U,69463,999,417,.21453002E-2,.343968E-2,0
STARLINK-37574,2026-127X,2026-07-04T09:17:18.356928,15.75305945,.00010689,53.1580,176.3496,41.0536,319.0564,0,U,69464,999,412,.18568339E-2,.295006E-2,0
STARLINK-37535,2026-127Y,2026-07-04T09:10:18.630048,15.75315609,.00013718,53.1569,176.3162,62.0980,298.0179,0,U,69465,999,412,.16665457E-2,.263831E-2,0
STARLINK-37583,2026-127Z,2026-07-04T16:08:22.721280,15.75422094,.00031877,53.1589,174.5600,79.3813,280.7566,0,U,69466,999,417,.30346526E-2,.496851E-2,0
STARLINK-37546,2026-127AA,2026-07-04T09:04:16.169088,15.75230466,.0001668,53.1570,176.2857,100.5354,259.5855,0,U,69467,999,412,.11902045E-2,.185798E-2,0
STARLINK-37532,2026-127AB,2026-07-04T22:00:03.000096,15.75112414,.00013672,53.1598,173.1856,90.7072,292.5100,0,U,69468,999,550,.91515621E-3,.141224E-2,0
STARLINK-37708,2026-127AC,2026-07-04T09:03:44.502624,15.75475417,.00010093,53.1569,176.2820,24.3906,335.7162,0,U,69469,999,412,.21860632E-2,.352425E-2,0
STARLINK-37686,2026-127AD,2026-07-04T16:34:31.281312,15.75401400,.00035283,53.1583,174.6785,76.6972,283.4442,0,U,69470,999,417,.26597266E-2,.431621E-2,0
STARLINK-37451,2026-127AE,2026-07-04T09:19:46.171776,15.81020231,.00003562,53.1574,175.6198,45.6474,314.4578,0,U,69471,999,413,.1495691E-2,.307348E-2,0
DTC TEST OBJECT A,2026-128A,2026-07-04T20:04:17.366304,15.53390042,.00104058,55.0002,223.5281,343.7915,16.2785,0,U,69472,999,397,.38484668E-3,.24386E-3,0
DTC TEST OBJECT B,2026-128B,2026-06-27T09:02:13.824960,15.56860342,.0009934,55.0021,257.9040,325.3113,34.7274,0,U,69473,999,280,.3356545E-3,.24134E-3,0
TJS-25,2026-129A,2026-07-04T21:18:09.523872,1.00269076,.00026769,5.9654,330.2871,284.8705,107.5125,0,U,69474,999,24,0,-.357E-5,0
STARLINK-37816,2026-131A,2026-07-04T18:52:15.277152,15.80828397,.00004918,97.2849,207.0845,116.5014,243.6305,0,U,69478,999,494,.22763063E-2,.459995E-2,0
STARLINK-37878,2026-131B,2026-07-04T19:00:19.907712,15.81182435,.00025114,97.2844,207.0776,328.3726,31.7391,0,U,69479,999,494,.24472016E-2,.505157E-2,0
STARLINK-37817,2026-131C,2026-07-02T16:00:01.999584,15.80776829,.0001807,97.2834,204.8472,101.2192,93.1313,0,U,69480,999,449,.21289028E-3,.40756E-3,0
STARLINK-37727,2026-131D,2026-07-04T18:49:00.267168,15.80803532,.00011055,97.2842,207.0877,33.3493,326.7844,0,U,69481,999,494,.24312122E-2,.492588E-2,0
STARLINK-37814,2026-131E,2026-07-04T22:00:03.000096,15.80770767,.00014931,97.2839,207.2317,55.1188,343.7807,0,U,69482,999,485,.55897998E-3,.108042E-2,0
STARLINK-37869,2026-131F,2026-07-04T00:00:02.999808,15.80795949,.00011771,97.2832,206.2639,84.5685,145.4314,0,U,69483,999,471,.31925138E-3,.61384E-3,0
STARLINK-37873,2026-131G,2026-07-04T18:45:46.512576,15.80727904,.00018018,97.2839,207.0922,254.7087,105.3982,0,U,69484,999,494,.82056434E-2,.1777167E-1,0
STARLINK-37892,2026-131H,2026-07-04T22:00:03.000096,15.80790813,.000126,97.2837,207.2363,63.5745,348.1420,0,U,69485,999,485,.22860723E-3,.43817E-3,0
STARLINK-37893,2026-131J,2026-07-04T12:38:58.961184,15.81373881,.00022486,97.2837,206.8252,12.9030,347.2296,0,U,69486,999,490,.39181256E-2,.849359E-2,0
STARLINK-37842,2026-131K,2026-07-04T18:42:31.938048,15.80871055,.00039242,97.2843,207.0951,83.1547,277.0167,0,U,69487,999,494,.18508323E-2,.370859E-2,0
STARLINK-37449,2026-131L,2026-07-03T16:51:47.987136,15.81072024,.00014061,97.2838,205.9575,75.3533,284.7891,0,U,69488,999,477,.16560264E-2,.333366E-2,0
STARLINK-37831,2026-131M,2026-07-04T12:35:43.914912,15.81093753,.00013909,97.2833,206.8291,50.2531,309.8859,0,U,69489,999,490,.27575403E-2,.57137E-2,0
STARLINK-37879,2026-131N,2026-07-04T12:34:39.016416,15.80943257,.00010162,97.2819,206.8298,88.8468,271.2917,0,U,69490,999,490,.3084004E-2,.639805E-2,0
STARLINK-37856,2026-131P,2026-07-03T17:00:40.661280,15.80872985,.00014716,97.2827,205.9484,122.7377,237.4033,0,U,69491,999,477,.15354723E-2,.305296E-2,0
STARLINK-37568,2026-131Q,2026-07-04T07:59:01.679712,15.80950415,.00013173,97.2843,206.6306,96.2066,263.9352,0,U,69492,999,487,.19523531E-2,.393616E-2,0
STARLINK-37855,2026-131R,2026-07-04T18:45:58.933440,15.80883619,.00031085,97.2835,207.0918,68.4597,291.7002,0,U,69493,999,494,.32441532E-2,.673738E-2,0
STARLINK-37854,2026-131S,2026-07-04T00:00:02.999808,15.80795534,.00014386,97.2833,206.2630,78.3313,148.5760,0,U,69494,999,477,-.25957274E-3,-.49536E-3,0
STARLINK-37789,2026-131T,2026-07-04T00:20:00.900384,15.81026756,.00015087,97.2832,206.2987,133.7379,226.4014,0,U,69495,999,356,.23997843E-2,.491078E-2,0
